start=new Date('2021-10-29T00:00:00.000Z').valueOf();
sats=[{"MEAN_MOTION_DOT":"-0.00000469","EPHEMERIS_TYPE":"0","ECCENTRICITY":"0.00014260","DECAY_DATE":null,"REV_AT_EPOCH":"2805","OBJECT_ID":"2021-036AL","TLE_LINE2":"2 48310  53.0562  43.3920 0001426  82.3405 277.7746 15.06400686 28056","RA_OF_ASC_NODE":"43.3920","MEAN_MOTION_DDOT":"0.0000000000000","REF_FRAME":"TEME","OBJECT_TYPE":"PAYLOAD","CLASSIFICATION_TYPE":"U","FILE":"3189402","GP_ID":"188367597","TLE_LINE1":"1 48310U 21036AL  21301.57148274 -.00000469  00000-0 -12597-4 0  9992","MEAN_ELEMENT_THEORY":"SGP4","SITE":"AFETR","ARG_OF_PERICENTER":"82.3405","LAUNCH_DATE":"2021-04-29","MEAN_ANOMALY":"277.7746","PERIOD":"95.592","EPOCH":"2021-10-28T13:42:56.108736","SEMIMAJOR_AXIS":"6925.346","BSTAR":"-0.00001259700000","TIME_SYSTEM":"UTC","MEAN_MOTION":"15.06400686","APOAPSIS":"548.199","INCLINATION":"53.0562","RCS_SIZE":"LARGE","PERIAPSIS":"546.224","CENTER_NAME":"EARTH","COUNTRY_CODE":"US","ELEMENT_SET_NO":"999","NORAD_CAT_ID":"48310","OBJECT_NAME":"STARLINK-2536"},{"MEAN_ELEMENT_THEORY":"SGP4","SITE":"AFETR","ARG_OF_PERICENTER":"73.0431","OBJECT_TYPE":"PAYLOAD","REF_FRAME":"TEME","CLASSIFICATION_TYPE":"U","FILE":"3189402","GP_ID":"188367844","TLE_LINE1":"1 48311U 21036AM  21301.56780471 -.00000836  00000-0 -37265-4 0  9990","ECCENTRICITY":"0.00014360","DECAY_DATE":null,"REV_AT_EPOCH":"2805","OBJECT_ID":"2021-036AM","TLE_LINE2":"2 48311  53.0573  43.4193 0001436  73.0431 287.0716 15.06395530 28051","RA_OF_ASC_NODE":"43.4193","MEAN_MOTION_DDOT":"0.0000000000000","MEAN_MOTION_DOT":"-0.00000836","EPHEMERIS_TYPE":"0","COUNTRY_CODE":"US","ELEMENT_SET_NO":"999","NORAD_CAT_ID":"48311","OBJECT_NAME":"STARLINK-2534","TIME_SYSTEM":"UTC","MEAN_MOTION":"15.06395530","APOAPSIS":"548.222","INCLINATION":"53.0573","RCS_SIZE":"LARGE","CENTER_NAME":"EARTH","PERIAPSIS":"546.233","PERIOD":"95.592","EPOCH":"2021-10-28T13:37:38.326944","SEMIMAJOR_AXIS":"6925.362","BSTAR":"-0.00003726500000","LAUNCH_DATE":"2021-04-29","MEAN_ANOMALY":"287.0716"},{"NORAD_CAT_ID":"48312","OBJECT_NAME":"STARLINK-2061","COUNTRY_CODE":"US","ELEMENT_SET_NO":"999","APOAPSIS":"548.257","INCLINATION":"53.0579","RCS_SIZE":"LARGE","PERIAPSIS":"546.061","CENTER_NAME":"EARTH","TIME_SYSTEM":"UTC","MEAN_MOTION":"15.06417774","BSTAR":"0.00005775500000","EPOCH":"2021-10-28T13:32:19.638816","PERIOD":"95.591","SEMIMAJOR_AXIS":"6925.294","MEAN_ANOMALY":"273.3604","LAUNCH_DATE":"2021-04-29","ARG_OF_PERICENTER":"86.7566","MEAN_ELEMENT_THEORY":"SGP4","SITE":"AFETR","GP_ID":"188366596","TLE_LINE1":"1 48312U 21036AN  21301.56411619  .00000579  00000-0  57755-4 0  9994","OBJECT_TYPE":"PAYLOAD","REF_FRAME":"TEME","CLASSIFICATION_TYPE":"U","FILE":"3189402","REV_AT_EPOCH":"2805","OBJECT_ID":"2021-036AN","TLE_LINE2":"2 48312  53.0579  43.4435 0001586  86.7566 273.3604 15.06417774 28052","MEAN_MOTION_DDOT":"0.0000000000000","RA_OF_ASC_NODE":"43.4435","ECCENTRICITY":"0.00015860","DECAY_DATE":null,"EPHEMERIS_TYPE":"0","MEAN_MOTION_DOT":"0.00000579"},{"SITE":"AFETR","MEAN_ELEMENT_THEORY":"SGP4","ARG_OF_PERICENTER":"93.8266","FILE":"3189402","REF_FRAME":"TEME","OBJECT_TYPE":"PAYLOAD","CLASSIFICATION_TYPE":"U","TLE_LINE1":"1 48313U 21036AP  21301.56042579  .00000643  00000-0  62042-4 0  9997","GP_ID":"188366846","ECCENTRICITY":"0.00015530","DECAY_DATE":null,"OBJECT_ID":"2021-036AP","TLE_LINE2":"2 48313  53.0569  43.4662 0001553  93.8266 266.2901 15.06394988 28045","MEAN_MOTION_DDOT":"0.0000000000000","RA_OF_ASC_NODE":"43.4662","REV_AT_EPOCH":"2804","MEAN_MOTION_DOT":"0.00000643","EPHEMERIS_TYPE":"0","COUNTRY_CODE":"US","ELEMENT_SET_NO":"999","NORAD_CAT_ID":"48313","OBJECT_NAME":"STARLINK-2541","MEAN_MOTION":"15.06394988","TIME_SYSTEM":"UTC","RCS_SIZE":"LARGE","CENTER_NAME":"EARTH","PERIAPSIS":"546.153","APOAPSIS":"548.304","INCLINATION":"53.0569","SEMIMAJOR_AXIS":"6925.364","PERIOD":"95.592","EPOCH":"2021-10-28T13:27:00.788256","BSTAR":"0.00006204200000","LAUNCH_DATE":"2021-04-29","MEAN_ANOMALY":"266.2901"},{"REV_AT_EPOCH":"2804","TLE_LINE2":"2 48314  53.0544  43.4821 0001533  78.1849 281.9311 15.06414508 28047","MEAN_MOTION_DDOT":"0.0000000000000","RA_OF_ASC_NODE":"43.4821","OBJECT_ID":"2021-036AQ","DECAY_DATE":null,"ECCENTRICITY":"0.00015330","EPHEMERIS_TYPE":"0","MEAN_MOTION_DOT":"0.00005489","ARG_OF_PERICENTER":"78.1849","MEAN_ELEMENT_THEORY":"SGP4","SITE":"AFETR","GP_ID":"188368098","TLE_LINE1":"1 48314U 21036AQ  21301.55673567  .00005489  00000-0  38692-3 0  9990","CLASSIFICATION_TYPE":"U","OBJECT_TYPE":"PAYLOAD","REF_FRAME":"TEME","FILE":"3189402","BSTAR":"0.00038692000000","PERIOD":"95.591","EPOCH":"2021-10-28T13:21:41.961888","SEMIMAJOR_AXIS":"6925.304","MEAN_ANOMALY":"281.9311","LAUNCH_DATE":"2021-04-29","OBJECT_NAME":"STARLINK-2549","NORAD_CAT_ID":"48314","ELEMENT_SET_NO":"999","COUNTRY_CODE":"US","INCLINATION":"53.0544","APOAPSIS":"548.231","CENTER_NAME":"EARTH","PERIAPSIS":"546.107","RCS_SIZE":"LARGE","TIME_SYSTEM":"UTC","MEAN_MOTION":"15.06414508"},{"MEAN_MOTION":"15.06404383","TIME_SYSTEM":"UTC","PERIAPSIS":"546.334","CENTER_NAME":"EARTH","RCS_SIZE":"LARGE","INCLINATION":"53.0568","APOAPSIS":"548.066","ELEMENT_SET_NO":"999","COUNTRY_CODE":"US","OBJECT_NAME":"STARLINK-2506","NORAD_CAT_ID":"48315","LAUNCH_DATE":"2021-04-29","MEAN_ANOMALY":"277.7572","SEMIMAJOR_AXIS":"6925.335","PERIOD":"95.592","EPOCH":"2021-10-28T13:16:23.725632","BSTAR":"0.00010733000000","FILE":"3189402","CLASSIFICATION_TYPE":"U","REF_FRAME":"TEME","OBJECT_TYPE":"PAYLOAD","TLE_LINE1":"1 48315U 21036AR  21301.55305238  .00001318  00000-0  10733-3 0  9991","GP_ID":"188368345","SITE":"AFETR","MEAN_ELEMENT_THEORY":"SGP4","ARG_OF_PERICENTER":"82.3559","MEAN_MOTION_DOT":"0.00001318","EPHEMERIS_TYPE":"0","DECAY_DATE":null,"ECCENTRICITY":"0.00012510","MEAN_MOTION_DDOT":"0.0000000000000","TLE_LINE2":"2 48315  53.0568  43.4910 0001251  82.3559 277.7572 15.06404383 28047","RA_OF_ASC_NODE":"43.4910","OBJECT_ID":"2021-036AR","REV_AT_EPOCH":"2804"},{"PERIOD":"95.592","EPOCH":"2021-10-28T13:11:05.678592","SEMIMAJOR_AXIS":"6925.358","BSTAR":"0.00005336300000","LAUNCH_DATE":"2021-04-29","MEAN_ANOMALY":"272.7794","ELEMENT_SET_NO":"999","COUNTRY_CODE":"US","OBJECT_NAME":"STARLINK-2507","NORAD_CAT_ID":"48316","TIME_SYSTEM":"UTC","MEAN_MOTION":"15.06396969","INCLINATION":"53.0564","APOAPSIS":"548.095","CENTER_NAME":"EARTH","PERIAPSIS":"546.350","RCS_SIZE":"LARGE","DECAY_DATE":null,"ECCENTRICITY":"0.00012600","REV_AT_EPOCH":"2804","TLE_LINE2":"2 48316  53.0564  43.5112 0001260  87.3339 272.7794 15.06396969 28041","RA_OF_ASC_NODE":"43.5112","MEAN_MOTION_DDOT":"0.0000000000000","OBJECT_ID":"2021-036AS","MEAN_MOTION_DOT":"0.00000513","EPHEMERIS_TYPE":"0","MEAN_ELEMENT_THEORY":"SGP4","SITE":"AFETR","ARG_OF_PERICENTER":"87.3339","CLASSIFICATION_TYPE":"U","OBJECT_TYPE":"PAYLOAD","REF_FRAME":"TEME","FILE":"3189402","GP_ID":"188367097","TLE_LINE1":"1 48316U 21036AS  21301.54937128  .00000513  00000-0  53363-4 0  9993"},{"PERIAPSIS":"546.260","CENTER_NAME":"EARTH","RCS_SIZE":"LARGE","INCLINATION":"53.0561","APOAPSIS":"548.225","MEAN_MOTION":"15.06390597","TIME_SYSTEM":"UTC","OBJECT_NAME":"STARLINK-2513","NORAD_CAT_ID":"48317","ELEMENT_SET_NO":"999","COUNTRY_CODE":"US","MEAN_ANOMALY":"274.1697","LAUNCH_DATE":"2021-04-29","BSTAR":"0.00004464700000","SEMIMAJOR_AXIS":"6925.377","PERIOD":"95.593","EPOCH":"2021-10-28T13:05:47.444064","TLE_LINE1":"1 48317U 21036AT  21301.54568801  .00000383  00000-0  44647-4 0  9992","GP_ID":"188367347","FILE":"3189402","CLASSIFICATION_TYPE":"U","REF_FRAME":"TEME","OBJECT_TYPE":"PAYLOAD","ARG_OF_PERICENTER":"85.9454","SITE":"AFETR","MEAN_ELEMENT_THEORY":"SGP4","EPHEMERIS_TYPE":"0","MEAN_MOTION_DOT":"0.00000383","RA_OF_ASC_NODE":"43.5242","TLE_LINE2":"2 48317  53.0561  43.5242 0001419  85.9454 274.1697 15.06390597 28040","MEAN_MOTION_DDOT":"0.0000000000000","OBJECT_ID":"2021-036AT","REV_AT_EPOCH":"2804","DECAY_DATE":null,"ECCENTRICITY":"0.00014190"},{"INCLINATION":"53.0547","APOAPSIS":"548.182","PERIAPSIS":"546.276","CENTER_NAME":"EARTH","RCS_SIZE":"LARGE","TIME_SYSTEM":"UTC","MEAN_MOTION":"15.06394945","OBJECT_NAME":"STARLINK-2509","NORAD_CAT_ID":"48318","ELEMENT_SET_NO":"999","COUNTRY_CODE":"US","MEAN_ANOMALY":"274.7452","LAUNCH_DATE":"2021-04-29","BSTAR":"-0.00002929400000","PERIOD":"95.592","EPOCH":"2021-10-28T14:29:23.306208","SEMIMAJOR_AXIS":"6925.364","TLE_LINE1":"1 48318U 21036AU  21301.60374197 -.00000718  00000-0 -29294-4 0  9998","GP_ID":"188367598","CLASSIFICATION_TYPE":"U","REF_FRAME":"TEME","OBJECT_TYPE":"PAYLOAD","FILE":"3189402","ARG_OF_PERICENTER":"85.3694","MEAN_ELEMENT_THEORY":"SGP4","SITE":"AFETR","EPHEMERIS_TYPE":"0","MEAN_MOTION_DOT":"-0.00000718","REV_AT_EPOCH":"2791","RA_OF_ASC_NODE":"53.2528","TLE_LINE2":"2 48318  53.0547  53.2528 0001376  85.3694 274.7452 15.06394945 27913","MEAN_MOTION_DDOT":"0.0000000000000","OBJECT_ID":"2021-036AU","DECAY_DATE":null,"ECCENTRICITY":"0.00013760"},{"LAUNCH_DATE":"2021-04-29","MEAN_ANOMALY":"280.6530","PERIOD":"95.592","EPOCH":"2021-10-28T14:24:04.353696","SEMIMAJOR_AXIS":"6925.359","BSTAR":"0.00007873000000","TIME_SYSTEM":"UTC","MEAN_MOTION":"15.06396641","INCLINATION":"53.0546","APOAPSIS":"548.204","CENTER_NAME":"EARTH","PERIAPSIS":"546.244","RCS_SIZE":"LARGE","ELEMENT_SET_NO":"999","COUNTRY_CODE":"US","OBJECT_NAME":"STARLINK-2512","NORAD_CAT_ID":"48319","MEAN_MOTION_DOT":"0.00000891","EPHEMERIS_TYPE":"0","DECAY_DATE":null,"ECCENTRICITY":"0.00014150","REV_AT_EPOCH":"2791","RA_OF_ASC_NODE":"53.2745","TLE_LINE2":"2 48319  53.0546  53.2745 0001415  79.4618 280.6530 15.06396641 27916","MEAN_MOTION_DDOT":"0.0000000000000","OBJECT_ID":"2021-036AV","CLASSIFICATION_TYPE":"U","OBJECT_TYPE":"PAYLOAD","REF_FRAME":"TEME","FILE":"3189402","GP_ID":"188367845","TLE_LINE1":"1 48319U 21036AV  21301.60005039  .00000891  00000-0  78730-4 0  9994","MEAN_ELEMENT_THEORY":"SGP4","SITE":"AFETR","ARG_OF_PERICENTER":"79.4618"}];
